OBJECT_NAME,OBJECT_ID,EPOCH,MEAN_MOTION,ECCENTRICITY,INCLINATION,RA_OF_ASC_NODE,ARG_OF_PERICENTER,MEAN_ANOMALY,EPHEMERIS_TYPE,CLASSIFICATION_TYPE,NORAD_CAT_ID,ELEMENT_SET_NO,REV_AT_EPOCH,BSTAR,MEAN_MOTION_DOT,MEAN_MOTION_DDOT
FM-6,2013-058A,2026-07-24T06:51:22.167072,1.00271042,.00005084,0.0110,35.6187,153.2773,99.5862,0,U,39360,999,4644,0,-.1E-6,0
RADUGA-1M 3,2013-062A,2026-07-24T05:20:38.783904,1.00274272,.00018753,6.0496,71.8783,286.3125,58.8969,0,U,39375,999,4647,0,.152E-5,0
SES-8,2013-071A,2026-07-24T03:52:21.619776,1.00273169,.00027585,0.0589,257.3698,213.3597,344.2421,0,U,39460,999,4480,0,-.264E-5,0
INMARSAT 5-F1,2013-073A,2026-07-24T02:52:38.650656,1.00272977,.00005299,0.0154,62.0904,86.8211,258.7308,0,U,39476,999,4594,0,.33E-6,0
TKSAT-1 (TUPAC KATARI),2013-075A,2026-07-24T07:03:45.253728,1.00270408,.00028138,0.0175,85.2950,28.4231,207.0545,0,U,39481,999,4597,0,0,0
EXPRESS-AM5,2013-077A,2026-07-23T23:54:53.875296,1.00271773,.0000415,0.0256,282.3022,196.4818,321.6866,0,U,39487,999,4672,0,-.275E-5,0
GSAT-14,2014-001A,2026-07-24T02:44:38.740128,1.00272200,.00021511,0.0320,92.2287,109.3967,215.3303,0,U,39498,999,4574,0,-.71E-6,0
THAICOM 6,2014-002A,2026-07-24T02:44:38.740128,1.00270105,.00047845,0.0327,129.1076,356.7651,295.6210,0,U,39500,999,4582,0,-.115E-5,0
TDRS 12,2014-004A,2026-07-24T05:53:58.662240,1.00270472,.00044258,4.0141,19.6790,198.3054,131.6007,0,U,39504,999,4464,0,-.267E-5,0
ABS-2,2014-006A,2026-07-24T02:44:38.740128,1.00272384,.00035618,0.0131,72.4180,33.9405,311.5536,0,U,39508,999,4564,0,-.81E-6,0
ATHENA-FIDUS,2014-006B,2026-07-24T05:20:38.783904,1.00274683,.00015879,0.0148,123.0288,1.3438,295.5427,0,U,39509,999,4545,0,.159E-5,0
TURKSAT 4A,2014-007A,2026-07-24T06:17:33.901152,1.00272200,.00011469,0.0748,279.8819,321.7449,196.7198,0,U,39522,999,4534,0,.151E-5,0
EXPRESS-AT1,2014-010A,2026-07-24T05:42:21.559392,1.00311624,.0004802,0.3506,85.3594,54.2470,315.0908,0,U,39612,999,4519,0,-.16E-6,0
EXPRESS-AT2,2014-010B,2026-07-24T05:04:38.652672,1.00271195,.00001714,0.0136,21.2721,3.3095,49.4991,0,U,39613,999,4486,0,.84E-6,0
AMAZONAS 4A,2014-011A,2026-07-24T07:10:30.910368,1.00271394,.00049601,0.0599,164.2106,335.2672,196.1662,0,U,39616,999,4508,0,-.247E-5,0
ASTRA 5B,2014-011B,2026-07-24T05:28:38.510400,1.00273227,.00022727,0.0600,315.5653,175.2603,276.7296,0,U,39617,999,4503,0,.142E-5,0
IRNSS-1B,2014-017A,2026-07-22T16:42:46.468224,1.00267424,.00213406,28.8725,239.7926,191.4522,174.9685,0,U,39635,999,4515,0,.145E-5,0
LUCH-5V,2014-023A,2026-07-24T03:57:09.608256,1.00271375,.00024382,5.2220,69.3582,79.1179,307.4451,0,U,39727,999,4473,0,-.268E-5,0
KAZSAT-3,2014-023B,2026-07-24T05:04:38.652672,1.00265841,.00004314,0.0093,11.5165,86.9240,338.1370,0,U,39728,999,4282,0,.67E-6,0
EUTELSAT 3B,2014-030A,2026-07-24T06:06:27.465984,1.00270788,.00042088,0.0617,352.1213,129.3324,275.2292,0,U,39773,999,4443,0,.25E-6,0
ASIASAT 8 (AMOS-7),2014-046A,2026-07-24T06:35:39.666624,1.00266905,.00019121,0.0597,257.1557,210.9369,38.0865,0,U,40107,999,10252,0,-.327E-5,0
ASIASAT 6,2014-052A,2026-07-23T06:42:39.963744,1.00272114,.0001142,0.0664,264.8434,237.3074,19.4410,0,U,40141,999,4344,0,-.357E-5,0
OPTUS 10,2014-054A,2026-07-24T05:07:23.214432,1.00271407,.00021275,0.1071,355.7542,123.5769,55.4536,0,U,40146,999,4340,0,-.142E-5,0
MEASAT-3B,2014-054B,2026-07-24T03:12:21.754368,1.00270779,.00024663,0.0264,29.5880,55.3230,356.5465,0,U,40147,999,4328,0,-.236E-5,0
HIMAWARI-8,2014-060A,2026-07-24T06:45:38.708928,1.00270360,.00014273,0.0359,275.9362,240.8296,27.2876,0,U,40267,999,4313,0,-.271E-5,0
IRNSS-1C,2014-061A,2026-07-23T15:05:26.008800,1.00270971,.00218557,6.6072,88.2365,6.4251,156.0981,0,U,40269,999,4305,0,-.163E-5,0
INTELSAT 30 (IS-30),2014-062A,2026-07-24T05:40:39.715392,1.00272274,.00016819,0.0186,57.6810,340.8744,253.5186,0,U,40271,999,716,0,-.146E-5,0
ARSAT 1,2014-062B,2026-07-24T07:14:50.273664,1.00271422,.00021296,0.0471,278.1523,194.8428,225.9299,0,U,40272,999,4299,0,-.254E-5,0
EUTELSAT 53A,2014-064A,2026-07-23T23:44:38.603616,1.00270137,.00015372,0.0163,31.5356,155.8462,163.4983,0,U,40277,999,4193,0,.103E-5,0
GSAT-16,2014-078A,2026-07-24T05:04:38.652672,1.00273324,.00076606,0.0162,78.2107,18.7654,336.1939,0,U,40332,999,4247,0,.9E-6,0
DIRECTV 14,2014-078B,2026-07-24T04:42:57.060000,1.00272657,.00006928,0.0104,47.9759,351.7167,233.7276,0,U,40333,999,4241,0,-.12E-5,0
YAMAL 401,2014-082A,2026-07-24T03:57:21.608352,1.00272694,.00009024,0.0271,189.4237,252.6459,9.1002,0,U,40345,999,4229,0,-.223E-5,0
