{"epoch":1784902576,"count":18312,"objects":[{"id":"39360","name":"SIRIUS FM-6","type":"PAYLOAD","l1":"1 39360U 13058A   26205.28567323 -.00000010  00000-0  00000-0 0  9991","l2":"2 39360   0.0110  35.6187 0000508 153.2773  99.5862  1.00271042 46440"},{"id":"39375","name":"RADUGA 1M-3","type":"PAYLOAD","l1":"1 39375U 13062A   26205.22267111  .00000152  00000-0  00000-0 0  9994","l2":"2 39375   6.0496  71.8783 0001875 286.3125  58.8969  1.00274272 46477"},{"id":"39460","name":"SES 8","type":"PAYLOAD","l1":"1 39460U 13071A   26205.16136134 -.00000264  00000-0  00000-0 0  9997","l2":"2 39460   0.0589 257.3698 0002759 213.3597 344.2421  1.00273169 44804"},{"id":"39476","name":"INMARSAT 5-F1","type":"PAYLOAD","l1":"1 39476U 13073A   26205.11989179  .00000033  00000-0  00000-0 0  9999","l2":"2 39476   0.0154  62.0904 0000530  86.8211 258.7308  1.00272977 45946"},{"id":"39481","name":"TKSAT 1","type":"PAYLOAD","l1":"1 39481U 13075A   26205.29427377  .00000000  00000-0  00000-0 0  9997","l2":"2 39481   0.0175  85.2950 0002814  28.4231 207.0545  1.00270408 45974"},{"id":"39487","name":"EXPRESS AM-5","type":"PAYLOAD","l1":"1 39487U 13077A   26204.99645689 -.00000275  00000-0  00000-0 0  9994","l2":"2 39487   0.0256 282.3022 0000415 196.4818 321.6866  1.00271773 46721"},{"id":"39498","name":"GSAT 14","type":"PAYLOAD","l1":"1 39498U 14001A   26205.11433727 -.00000071  00000-0  00000-0 0  9991","l2":"2 39498   0.0320  92.2287 0002151 109.3967 215.3303  1.00272200 45745"},{"id":"39500","name":"THAICOM 6","type":"PAYLOAD","l1":"1 39500U 14002A   26205.11433727 -.00000115  00000-0  00000-0 0  9995","l2":"2 39500   0.0327 129.1076 0004784 356.7651 295.6210  1.00270105 45823"},{"id":"39504","name":"TDRS 12","type":"PAYLOAD","l1":"1 39504U 14004A   26205.24581785 -.00000267  00000-0  00000-0 0  9991","l2":"2 39504   4.0141  19.6790 0004426 198.3054 131.6007  1.00270472 44640"},{"id":"39508","name":"ABS 2","type":"PAYLOAD","l1":"1 39508U 14006A   26205.11433727 -.00000081  00000-0  00000-0 0  9999","l2":"2 39508   0.0131  72.4180 0003562  33.9405 311.5536  1.00272384 45644"},{"id":"39509","name":"ATHENA-FIDUS","type":"PAYLOAD","l1":"1 39509U 14006B   26205.22267111  .00000159  00000-0  00000-0 0  9999","l2":"2 39509   0.0148 123.0288 0001588   1.3438 295.5427  1.00274683 45459"},{"id":"39522","name":"TURKSAT 4A","type":"PAYLOAD","l1":"1 39522U 14007A   26205.26219793  .00000151  00000-0  00000-0 0  9994","l2":"2 39522   0.0748 279.8819 0001147 321.7449 196.7198  1.00272200 45340"},{"id":"39612","name":"EXPRESS AT1","type":"PAYLOAD","l1":"1 39612U 14010A   26205.23774953 -.00000016  00000-0  00000-0 0  9990","l2":"2 39612   0.3506  85.3594 0004802  54.2470 315.0908  1.00311624 45190"},{"id":"39613","name":"EXPRESS AT2","type":"PAYLOAD","l1":"1 39613U 14010B   26205.21155848  .00000084  00000-0  00000-0 0  9999","l2":"2 39613   0.0136  21.2721 0000171   3.3095  49.4991  1.00271195 44862"},{"id":"39616","name":"AMAZONAS 4A","type":"PAYLOAD","l1":"1 39616U 14011A   26205.29896887 -.00000247  00000-0  00000-0 0  9998","l2":"2 39616   0.0599 164.2106 0004960 335.2672 196.1662  1.00271394 45082"},{"id":"39617","name":"ASTRA 5B","type":"PAYLOAD","l1":"1 39617U 14011B   26205.22822350  .00000142  00000-0  00000-0 0  9999","l2":"2 39617   0.0600 315.5653 0002273 175.2603 276.7296  1.00273227 45035"},{"id":"39635","name":"IRNSS 1B","type":"PAYLOAD","l1":"1 39635U 14017A   26203.69637116  .00000145  00000-0  00000-0 0  9991","l2":"2 39635  28.8725 239.7926 0021341 191.4522 174.9685  1.00267424 45154"},{"id":"39727","name":"LUCH 5V","type":"PAYLOAD","l1":"1 39727U 14023A   26205.16469454 -.00000268  00000-0  00000-0 0  9999","l2":"2 39727   5.2220  69.3582 0002438  79.1179 307.4451  1.00271375 44733"},{"id":"39728","name":"KAZSAT 3","type":"PAYLOAD","l1":"1 39728U 14023B   26205.21155848  .00000067  00000-0  00000-0 0  9991","l2":"2 39728   0.0093  11.5165 0000431  86.9240 338.1370  1.00265841 42827"},{"id":"39773","name":"EUTE 3B","type":"PAYLOAD","l1":"1 39773U 14030A   26205.25448456  .00000025  00000-0  00000-0 0  9997","l2":"2 39773   0.0617 352.1213 0004209 129.3324 275.2292  1.00270788 44438"},{"id":"40107","name":"ASIASAT 8","type":"PAYLOAD","l1":"1 40107U 14046A   26205.27476466 -.00000327  00000-0  00000-0 0  9997","l2":"2 40107   0.0597 257.1557 0001912 210.9369  38.0865  1.00266905102529"},{"id":"40141","name":"ASIASAT 6","type":"PAYLOAD","l1":"1 40141U 14052A   26204.27962921 -.00000357  00000-0  00000+0 0  9999","l2":"2 40141   0.0664 264.8434 0001142 237.3074  19.4410  1.00272114 43445"},{"id":"40146","name":"OPTUS 10","type":"PAYLOAD","l1":"1 40146U 14054A   26205.21346313 -.00000142  00000-0  00000-0 0  9995","l2":"2 40146   0.1071 355.7542 0002127 123.5769  55.4536  1.00271407 43403"},{"id":"40147","name":"MEASAT 3B","type":"PAYLOAD","l1":"1 40147U 14054B   26205.13358512 -.00000236  00000-0  00000-0 0  9995","l2":"2 40147   0.0264  29.5880 0002466  55.3230 356.5465  1.00270779 43282"},{"id":"40267","name":"HIMAWARI 8","type":"PAYLOAD","l1":"1 40267U 14060A   26205.28169802 -.00000271  00000-0  00000-0 0  9992","l2":"2 40267   0.0359 275.9362 0001427 240.8296  27.2876  1.00270360 43139"},{"id":"40269","name":"IRNSS 1C","type":"PAYLOAD","l1":"1 40269U 14061A   26204.62877325 -.00000163  00000-0  00000-0 0  9998","l2":"2 40269   6.6072  88.2365 0021856   6.4251 156.0981  1.00270971 43055"},{"id":"40271","name":"INTELSAT 30","type":"PAYLOAD","l1":"1 40271U 14062A   26205.23657078 -.00000146  00000-0  00000-0 0  9992","l2":"2 40271   0.0186  57.6810 0001682 340.8744 253.5186  1.00272274  7164"},{"id":"40272","name":"ARSAT 1","type":"PAYLOAD","l1":"1 40272U 14062B   26205.30197076 -.00000254  00000-0  00000-0 0  9998","l2":"2 40272   0.0471 278.1523 0002130 194.8428 225.9299  1.00271422 42990"},{"id":"40277","name":"EXPRESS AM-6","type":"PAYLOAD","l1":"1 40277U 14064A   26204.98933569  .00000103  00000-0  00000-0 0  9995","l2":"2 40277   0.0163  31.5356 0001537 155.8462 163.4983  1.00270137 41934"},{"id":"40332","name":"GSAT 16","type":"PAYLOAD","l1":"1 40332U 14078A   26205.21155848  .00000090  00000-0  00000-0 0  9990","l2":"2 40332   0.0162  78.2107 0007661  18.7654 336.1939  1.00273324 42472"},{"id":"40333","name":"DIRECTV 14","type":"PAYLOAD","l1":"1 40333U 14078B   26205.19649375 -.00000120  00000-0  00000-0 0  9996","l2":"2 40333   0.0104  47.9759 0000693 351.7167 233.7276  1.00272657 42410"},{"id":"40345","name":"YAMAL 401","type":"PAYLOAD","l1":"1 40345U 14082A   26205.16483343 -.00000223  00000-0  00000-0 0  9996","l2":"2 40345   0.0271 189.4237 0000902 252.6459   9.1002  1.00272694 42296"}]}